[{"OBJECT_NAME":"CONTINUUM-1","OBJECT_ID":"2023-001AN","EPOCH":"2026-03-09T23:17:35.458656","MEAN_MOTION":15.27981258,"ECCENTRICITY":0.00109493,"INCLINATION":97.3456,"RA_OF_ASC_NODE":133.3964,"ARG_OF_PERICENTER":60.1976,"MEAN_ANOMALY":300.0351,"EPHEMERIS_TYPE":0,"CLASSIFICATION_TYPE":"U","NORAD_CAT_ID":55045,"ELEMENT_SET_NO":999,"REV_AT_EPOCH":17709,"BSTAR":0.00052859897,"MEAN_MOTION_DOT":0.00014395,"MEAN_MOTION_DDOT":0},{"OBJECT_NAME":"STARLINK-32416","OBJECT_ID":"2024-187R","EPOCH":"2026-03-09T23:13:24.880512","MEAN_MOTION":15.30191727,"ECCENTRICITY":0.00011293,"INCLINATION":53.1604,"RA_OF_ASC_NODE":48.291,"ARG_OF_PERICENTER":72.6849,"MEAN_ANOMALY":287.4276,"EPHEMERIS_TYPE":0,"CLASSIFICATION_TYPE":"U","NORAD_CAT_ID":61589,"ELEMENT_SET_NO":999,"REV_AT_EPOCH":7934,"BSTAR":5.3882708e-5,"MEAN_MOTION_DOT":1.237e-5,"MEAN_MOTION_DDOT":0}]
